ONEWEB-0627             
1 55168U 23004AE  23291.01800516  .00000114  00000+0  26083-3 0  9999
2 55168  87.9234 199.3075 0001673 102.7564 257.3755 13.17649998 39425
ONEWEB-0628             
1 55169U 23004AF  23291.46359333  .00000432  00000+0  11653-2 0  9994
2 55169  87.8985 184.0780 0002008  92.0275 268.1083 13.12441068 40446
ONEWEB-0629             
1 55170U 23004AG  23291.01168117 -.00000021  00000+0 -87769-4 0  9994
2 55170  87.9250 199.2933 0002276  86.4245 273.7147 13.17651662 39420
ONEWEB-0631             
1 55171U 23004AH  23291.39377533  .00000217  00000+0  14276-3 0  9997
2 55171  87.1291 171.1210 0004597  60.4263 299.7371 13.97288199 41288
ONEWEB-0709             
1 55172U 23004AJ  23290.80892223 -.00000300  00000+0 -88302-3 0  9997
2 55172  87.9009 214.4698 0001127  54.9276 305.1957 13.11420301 38291
ONEWEB-0710             
1 55173U 23004AK  23291.46096247  .00000029  00000+0  41293-4 0  9998
2 55173  87.9252 199.2138 0001599  75.0099 285.1210 13.17651797 39483
ONEWEB-0711             
1 55174U 23004AL  23291.08652021  .00000636  00000+0  17584-2 0  9993
2 55174  87.9005 214.3881 0001932 101.2883 258.8462 13.11416045 38291
ONEWEB-0713             
1 55175U 23004AM  23291.02807043  .00000229  00000+0  61038-3 0  9996
2 55175  87.9004 214.4075 0001942  90.4738 269.6612 13.11422404 38277
ONEWEB-0715             
1 55176U 23004AN  23291.48097309 -.00002638  00000+0 -74793-2 0  9992
2 55176  87.8991 214.3283 0002169  82.7161 277.4214 13.11434944 38387
ONEWEB-0716             
1 55177U 23004AP  23291.45463685  .00000126  00000+0  29266-3 0  9998
2 55177  87.9234 199.2154 0002086  68.5396 291.5958 13.17650913 39483
ONEWEB-0717             
1 55178U 23004AQ  23291.51369315 -.00000066  00000+0 -20289-3 0  9992
2 55178  87.9251 199.1579 0001404 105.3687 254.7600 13.17652760 39543
ONEWEB-0719             
1 55179U 23004AR  23291.44831531  .00000070  00000+0  14746-3 0  9993
2 55179  87.9253 199.1579 0002130  81.0695 279.0677 13.17650259 39480
ONEWEB-0530             
1 55796U 23029A   23291.91667824  .00000014  00000+0  00000+0 0  9991
2 55796  87.8682 108.0463 0003505  88.0536 277.2703 13.41571456 33481
ONEWEB-0534             
1 55797U 23029B   23291.91667824  .00000014  00000+0  00000+0 0  9992
2 55797  87.8710 108.0466 0002046  82.0396 281.1880 13.42006892 33460
ONEWEB-0556             
1 55798U 23029C   23291.91667824  .00000014  00000+0  00000+0 0  9993
2 55798  87.8814 108.0408 0002483  37.0320 167.1233 13.41014820 33468
ONEWEB-0562             
1 55799U 23029D   23291.91667824  .00000014  00000+0  00000+0 0  9994
2 55799  87.8764 108.0308 0003445  65.6103 343.8867 13.40772789 33456
ONEWEB-0563             
1 55800U 23029E   23291.91667824  .00000014  00000+0  00000+0 0  9997
2 55800  87.8400 108.0663 0002282  71.9718 173.6008 13.44125426 33450
ONEWEB-0564             
1 55801U 23029F   23291.91667824  .00000014  00000+0  00000+0 0  9998
2 55801  87.8742 108.0301 0002833  54.7714 334.4342 13.41450766 33482
ONEWEB-0638             
1 55802U 23029G   23291.83585971  .00001185  00000+0  31630-2 0  9998
2 55802  87.8968 123.3065 0002448  80.9321 279.2085 13.14492653 32364
ONEWEB-0639             
1 55803U 23029H   23291.07500057  .00000200  00000+0  46679-3 0  9994
2 55803  87.9198 138.6530 0002390  44.6857 315.4468 13.19728121 30558
ONEWEB-0640             
1 55804U 23029J   23291.08314474  .00000087  00000+0  20051-3 0  9991
2 55804  87.8938 123.4686 0002763  74.2557 285.8877 13.14506735 31571
ONEWEB-0641             
1 55805U 23029K   23291.07027162  .00000220  00000+0  51808-3 0  9999
2 55805  87.9136 138.6733 0001734  69.0917 291.0401 13.19725477 30564
ONEWEB-0642             
1 55806U 23029L   23291.06552019  .00000117  00000+0  25889-3 0  9998
2 55806  87.9201 138.6565 0002028  44.3718 315.7577 13.19723211 30554
ONEWEB-0643             
1 55807U 23029M   23291.81687382  .00000004  00000+0 -24450-4 0  9994
2 55807  87.8959 123.2869 0001445  35.1877 324.9348 13.14508720 32356
ONEWEB-0644             
1 55808U 23029N   23291.06080249  .00000090  00000+0  19325-3 0  9999
2 55808  87.9131 138.6607 0001762  55.5140 304.6159 13.19726416 30555
ONEWEB-0645             
1 55809U 23029P   23291.05685066  .00000070  00000+0  14203-3 0  9995
2 55809  87.9203 138.6541 0002137  66.2535 293.8822 13.19723792 30557
ONEWEB-0646             
1 55810U 23029Q   23291.84503039 -.00000634  00000+0 -16168-2 0  9992
2 55810  87.9191 138.5008 0001703  66.1402 293.9909 13.19727876 31333
ONEWEB-0648             
1 55811U 23029R   23291.09370998 -.00000145  00000+0 -42556-3 0  9994
2 55811  87.8963 123.3962 0002326  53.3938 306.7406 13.14497361 31552
ONEWEB-0649             
1 55812U 23029S   23291.12556321  .00002735  00000+0  67985-2 0  9992
2 55812  87.9206 138.6438 0002253  64.9539 295.1827 13.19713322 31275
ONEWEB-0650             
1 55813U 23029T   23291.87896588  .00000018  00000+0  11549-4 0  9996
2 55813  87.9200 138.4911 0001613  64.7750 295.3550 13.19728590 31342
ONEWEB-0652             
1 55814U 23029U   23291.84012687  .00000251  00000+0  64244-3 0  9992
2 55814  87.8962 123.2627 0001912  87.3482 272.7867 13.14507009 32311
ONEWEB-0653             
1 55815U 23029V   23291.52297660  .00000270  00000+0  69441-3 0  9999
2 55815  87.9041 123.2611 0002064  86.9905 273.1461 13.14499391 32306
ONEWEB-0654             
1 55816U 23029W   23291.05991642  .00000398  00000+0  10388-2 0  9995
2 55816  87.8950 123.4093 0001984 103.7888 256.3463 13.14508253 31570
ONEWEB-0656             
1 55817U 23029X   23291.91667824  .00000014  00000+0  00000+0 0  9995
2 55817  87.7327 108.0713 0002146  44.5640 292.0746 13.50086161 33454
ONEWEB-0657             
1 55818U 23029Y   23291.87424728  .00002848  00000+0  70800-2 0  9990
2 55818  87.9203 138.4971 0000919 108.3342 251.7890 13.19714005 31345
ONEWEB-0658             
1 55819U 23029Z   23291.86951197  .00000051  00000+0  95336-4 0  9992
2 55819  87.9185 138.4423 0002180  80.0687 280.0692 13.19727038 31353
ONEWEB-0660             
1 55820U 23029AA  23291.03450023 -.00000185  00000+0 -53313-3 0  9993
2 55820  87.8969 123.3843 0002204  72.8743 287.2628 13.14497953 31557
ONEWEB-0661             
1 55821U 23029AB  23291.52930998 -.00001358  00000+0 -36974-2 0  9998
2 55821  87.8961 123.3567 0002245  78.5864 281.5517 13.14510804 32292
ONEWEB-0662             
1 55822U 23029AC  23291.03028692 -.00000195  00000+0 -56015-3 0  9991
2 55822  87.8958 123.4638 0002001  70.8771 289.2575 13.14504357 31587
ONEWEB-0663             
1 55823U 23029AD  23291.91667824  .00000014  00000+0  00000+0 0  9992
2 55823  87.7636 108.1078 0002556  60.3364 163.8585 13.48161079 33458
ONEWEB-0664             
1 55824U 23029AE  23291.91667824  .00000014  00000+0  00000+0 0  9993
2 55824  87.7675 108.1221 0002237  56.6800  67.5947 13.48241922 33459
ONEWEB-0665             
1 55825U 23029AF  23291.82954596  .00000221  00000+0  56229-3 0  9997
2 55825  87.8958 123.2720 0002186  82.6613 277.4765 13.14505668 32352
ONEWEB-0666             
1 55826U 23029AG  23291.91667824  .00000014  00000+0  00000+0 0  9995
2 55826  87.7567 108.1129 0001374  40.3629 314.4755 13.49083403 33458
ONEWEB-0667             
1 55827U 23029AH  23291.91667824  .00000014  00000+0  00000+0 0  9996
2 55827  87.7105 108.0885 0002331  68.2772 115.5569 13.51209475 33452
ONEWEB-0669             
1 55828U 23029AJ  23291.91667824  .00000014  00000+0  00000+0 0  9997
2 55828  87.7546 108.0847 0002458  25.2723 275.5686 13.48716558 33457
ONEWEB-0670             
1 55829U 23029AK  23291.50392315 -.00000066  00000+0 -21296-3 0  9996
2 55829  87.8961 123.3349 0002387  78.7252 281.4146 13.14498157 32336
ONEWEB-0671             
1 55830U 23029AL  23291.86476431 -.00001861  00000+0 -46816-2 0  9997
2 55830  87.9206 138.5007 0002199  72.9586 287.1788 13.19737435 31342
ONEWEB-0672             
1 55831U 23029AM  23291.91667824  .00000014  00000+0  00000+0 0  9991
2 55831  87.7332 108.0846 0002254  54.6127 112.9984 13.49946781 33450
ONEWEB-0673             
1 55832U 23029AN  23291.08291550  .00000142  00000+0  32204-3 0  9996
2 55832  87.9102 138.6750 0001991  73.0434 287.0916 13.19727205 30556
ONEWEB-0674             
1 55833U 23029AP  23291.08526857  .00001203  00000+0  32102-2 0  9993
2 55833  87.8963 123.4327 0002552  84.3949 275.7472 13.14494023 31571
ONEWEB-0675             
1 55834U 23029AQ  23291.55360053 -.00002960  00000+0 -74262-2 0  9996
2 55834  87.9121 138.5615 0001305  68.3522 291.7750 13.19741080 31345
ONEWEB-0720             
1 55835U 23029AR  23291.84896107  .00000137  00000+0  30962-3 0  9995
2 55835  87.9112 138.5070 0001934  63.6025 296.5307 13.19728360 31285
ONEWEB-0537             
1 56046U 23043A   23291.50001157 -.01229599  00000+0 -68684+0 0  9998
2 56046  87.3662  64.0530 0002143 329.2087  91.6718 14.14316281 31652
ONEWEB-0538             
1 56047U 23043B   23291.91667824 -.01200233  00000+0 -66615+0 0  9999
2 56047  87.3662  63.9846 0001845  11.5647 139.7130 14.14581042 31710
ONEWEB-0546             
1 56048U 23043C   23291.58334491 -.01206294  00000+0 -67443+0 0  9997
2 56048  87.3676  64.0209 0003399 118.2500 144.2088 14.14200051 31676
ONEWEB-0547             
1 56049U 23043D   23291.85253935  .00006426  00000+0  15539-1 0  9994
2 56049  87.9204  77.5522 0001682  84.4348 275.6978 13.21734422 30682
ONEWEB-0548             
1 56050U 23043E   23291.58334491 -.01223569  00000+0 -67081+0 0  9992
2 56050  87.3571  64.0954 0003829  92.0291  45.6751 14.15307658 31666
ONEWEB-0549             
1 56051U 23043F   23291.84470698 -.00002376  00000+0 -57758-2 0  9995
2 56051  87.9194  77.5554 0001276  89.8246 270.3034 13.21957281 30688
ONEWEB-0550             
1 56052U 23043G   23291.68072534 -.00005634  00000+0 -13660-1 0  9998
2 56052  87.9201  77.5992 0002097  93.5908 266.5465 13.21930745 30662
